$$SOE
2459580.500000000, A.D. 2022-Jan-01 00:00:00.0000, -3.876903056600145E+08, -1.039309577449179E+08, 1.960180349007746E+07,
2459587.500000000, A.D. 2022-Jan-08 00:00:00.0000, -3.836016657030796E+08, -1.135193138047674E+08, 1.930418777272257E+07,
2459594.500000000, A.D. 2022-Jan-15 00:00:00.0000, -3.792232279010674E+08, -1.230218765834385E+08, 1.899198684062632E+07,
2459601.500000000, A.D. 2022-Jan-22 00:00:00.0000, -3.745553125954612E+08, -1.324304985662981E+08, 1.866528678530236E+07,
2459608.500000000, A.D. 2022-Jan-29 00:00:00.0000, -3.695984165764583E+08, -1.417369119379565E+08, 1.832418416343706E+07,
2459615.500000000, A.D. 2022-Feb-05 00:00:00.0000, -3.643532240244165E+08, -1.509327284564407E+08, 1.796878661285970E+07,
2459622.500000000, A.D. 2022-Feb-12 00:00:00.0000, -3.588206157490318E+08, -1.600094407173893E+08, 1.759921320551615E+07,
2459629.500000000, A.D. 2022-Feb-19 00:00:00.0000, -3.530016780619048E+08, -1.689584224758148E+08, 1.721559485292216E+07,
2459636.500000000, A.D. 2022-Feb-26 00:00:00.0000, -3.468977126013157E+08, -1.777709287884884E+08, 1.681807482522878E+07,
2459643.500000000, A.D. 2022-Mar-05 00:00:00.0000, -3.405102469570119E+08, -1.864380966383570E+08, 1.640680931850366E+07,
2459650.500000000, A.D. 2022-Mar-12 00:00:00.0000, -3.338410458796298E+08, -1.949509461534471E+08, 1.598196804410153E+07,
2459657.500000000, A.D. 2022-Mar-19 00:00:00.0000, -3.268921230060021E+08, -2.033003824403789E+08, 1.554373483538445E+07,
2459664.500000000, A.D. 2022-Mar-26 00:00:00.0000, -3.196657530743867E+08, -2.114771980906983E+08, 1.509230826843487E+07,
2459671.500000000, A.D. 2022-Apr-02 00:00:00.0000, -3.121644845546233E+08, -2.194720764752358E+08, 1.462790228486954E+07,
2459678.500000000, A.D. 2022-Apr-09 00:00:00.0000, -3.043911524137226E+08, -2.272755958879289E+08, 1.415074679099993E+07,
2459685.500000000, A.D. 2022-Apr-16 00:00:00.0000, -2.963488906523556E+08, -2.348782339548242E+08, 1.366108825282229E+07,
2459692.500000000, A.D. 2022-Apr-23 00:00:00.0000, -2.880411458698889E+08, -2.422703712942737E+08, 1.315919049040645E+07,
2459699.500000000, A.D. 2022-Apr-30 00:00:00.0000, -2.794716937092580E+08, -2.494422967453431E+08, 1.264533565778212E+07,
2459706.500000000, A.D. 2022-May-07 00:00:00.0000, -2.706446550928783E+08, -2.563842162140316E+08, 1.211982496373475E+07,
2459713.500000000, A.D. 2022-May-14 00:00:00.0000, -2.615645108262931E+08, -2.630862621782555E+08, 1.158297925179882E+07,
2459720.500000000, A.D. 2022-May-21 00:00:00.0000, -2.522361165561762E+08, -2.695385031742470E+08, 1.103513968486153E+07,
2459727.500000000, A.D. 2022-May-28 00:00:00.0000, -2.426647185066165E+08, -2.757309543085757E+08, 1.047666849650531E+07,
2459734.500000000, A.D. 2022-Jun-04 00:00:00.0000, -2.328559696527542E+08, -2.816535891992613E+08, 9.907949754092649E+06,
2459741.500000000, A.D. 2022-Jun-11 00:00:00.0000, -2.228159461156093E+08, -2.872963534385814E+08, 9.329390116047546E+06,
2459748.500000000, A.D. 2022-Jun-18 00:00:00.0000, -2.125511636594014E+08, -2.926491796598346E+08, 8.741419576046661E+06,
2459755.500000000, A.D. 2022-Jun-25 00:00:00.0000, -2.020685941701692E+08, -2.977020043347622E+08, 8.144492183291584E+06,
2459762.500000000, A.D. 2022-Jul-02 00:00:00.0000, -1.913756818755551E+08, -3.024447864581824E+08, 7.539086714963555E+06,
2459769.500000000, A.D. 2022-Jul-09 00:00:00.0000, -1.804803587937582E+08, -3.068675280306896E+08, 6.925707272431374E+06,
2459776.500000000, A.D. 2022-Jul-16 00:00:00.0000, -1.693910593292017E+08, -3.109602953400744E+08, 6.304883886875167E+06,
2459783.500000000, A.D. 2022-Jul-23 00:00:00.0000, -1.581167360581515E+08, -3.147132410405899E+08, 5.677173333536193E+06,
2459790.500000000, A.D. 2022-Jul-30 00:00:00.0000, -1.466668764470439E+08, -3.181166304543330E+08, 5.043159863040820E+06,
2459797.500000000, A.D. 2022-Aug-06 00:00:00.0000, -1.350515167157887E+08, -3.211608715103990E+08, 4.403455562262654E+06,
2459804.500000000, A.D. 2022-Aug-13 00:00:00.0000, -1.232812534644402E+08, -3.238365456187364E+08, 3.758700634430870E+06,
2459811.500000000, A.D. 2022-Aug-20 00:00:00.0000, -1.113672544098836E+08, -3.261344400161990E+08, 3.109563689639017E+06,
2459818.500000000, A.D. 2022-Aug-27 00:00:00.0000, -9.932126792378710E+07, -3.280455823259698E+08, 2.456741967599496E+06,
2459825.500000000, A.D. 2022-Sep-03 00:00:00.0000, -8.715563086567043E+07, -3.295612774332544E+08, 1.800961447392121E+06,
2459832.500000000, A.D. 2022-Sep-10 00:00:00.0000, -7.488327434584658E+07, -3.306731466216599E+08, 1.142976823532224E+06,
2459839.500000000, A.D. 2022-Sep-17 00:00:00.0000, -6.251772709980336E+07, -3.313731689144738E+08, 4.835713306574374E+05,
2459846.500000000, A.D. 2022-Sep-24 00:00:00.0000, -5.007311611445007E+07, -3.316537245836344E+08, -1.764436078499258E+05,
2459853.500000000, A.D. 2022-Oct-01 00:00:00.0000, -3.756416395919305E+07, -3.315076407243515E+08, -8.362289462414682E+05,
2459860.500000000, A.D. 2022-Oct-08 00:00:00.0000, -2.500618210196822E+07, -3.309282382089615E+08, -1.494918807661980E+06,
2459867.500000000, A.D. 2022-Oct-15 00:00:00.0000, -1.241506082815479E+07, -3.299093786130838E+08, -2.151621331855670E+06,
2459874.500000000, A.D. 2022-Oct-22 00:00:00.0000, 1.927423669279195E+05, -3.284455125428984E+08, -2.805419531484142E+06,
2459881.500000000, A.D. 2022-Oct-29 00:00:00.0000, 1.280021871277054E+07, -3.265317316552963E+08, -3.455372612060711E+06,
2459888.500000000, A.D. 2022-Nov-05 00:00:00.0000, 2.538983081146161E+07, -3.241638212832021E+08, -4.100517736514330E+06,
2459895.500000000, A.D. 2022-Nov-12 00:00:00.0000, 3.794354029502544E+07, -3.213383120031199E+08, -4.739871961121574E+06,
2459902.500000000, A.D. 2022-Nov-19 00:00:00.0000, 5.044284000227445E+07, -3.180525306525445E+08, -5.372434363171950E+06,
2459909.500000000, A.D. 2022-Nov-26 00:00:00.0000, 6.286879112547198E+07, -3.143046506998781E+08, -5.997188422630087E+06,
2459916.500000000, A.D. 2022-Dec-03 00:00:00.0000, 7.520206562853369E+07, -3.100937414366594E+08, -6.613104676544398E+06,
2459923.500000000, A.D. 2022-Dec-10 00:00:00.0000, 8.742299405616124E+07, -3.054198153841532E+08, -7.219143647948548E+06,
2459930.500000000, A.D. 2022-Dec-17 00:00:00.0000, 9.951161876622479E+07, -3.002838733053911E+08, -7.814259048963100E+06,
2459937.500000000, A.D. 2022-Dec-24 00:00:00.0000, 1.114477526342259E+08, -2.946879462224853E+08, -8.397401264818951E+06,
2459944.500000000, A.D. 2022-Dec-31 00:00:00.0000, 1.232110434526111E+08, -2.886351336528509E+08, -8.967521129682317E+06,
2459951.500000000, A.D. 2023-Jan-07 00:00:00.0000, 1.347810439264686E+08, -2.821296364269292E+08, -9.523573909109578E+06,
2459958.500000000, A.D. 2023-Jan-14 00:00:00.0000, 1.461372849779600E+08, -2.751767829275165E+08, -1.006452324534948E+07,
2459965.500000000, A.D. 2023-Jan-21 00:00:00.0000, 1.572593512890936E+08, -2.677830512749996E+08, -1.058934523772070E+07,
2459972.500000000, A.D. 2023-Jan-28 00:00:00.0000, 1.681269622253638E+08, -2.599560870331360E+08, -1.109703297750875E+07,
2459979.500000000, A.D. 2023-Feb-04 00:00:00.0000, 1.787200573114959E+08, -2.517047128348369E+08, -1.158660123298226E+07,
2459986.500000000, A.D. 2023-Feb-11 00:00:00.0000, 1.890188837525953E+08, -2.430389296123659E+08, -1.205709109352225E+07,
2459993.500000000, A.D. 2023-Feb-18 00:00:00.0000, 1.990040851424882E+08, -2.339699098253976E+08, -1.250757458851808E+07,
2460000.500000000, A.D. 2023-Feb-25 00:00:00.0000, 2.086567907542745E+08, -2.245099825155203E+08, -1.293715926948847E+07,
2460007.500000000, A.D. 2023-Mar-04 00:00:00.0000, 2.179587045872612E+08, -2.146726099464069E+08, -1.334499271210857E+07,
2460014.500000000, A.D. 2023-Mar-11 00:00:00.0000, 2.268921932249536E+08, -2.044723557298468E+08, -1.373026688823946E+07,
2460021.500000000, A.D. 2023-Mar-18 00:00:00.0000, 2.354403715478125E+08, -1.939248445170395E+08, -1.409222236365983E+07,
2460028.500000000, A.D. 2023-Mar-25 00:00:00.0000, 2.435871854941196E+08, -1.830467134646590E+08, -1.443015229219287E+07,
2460035.500000000, A.D. 2023-Apr-01 00:00:00.0000, 2.513174913048380E+08, -1.718555553842272E+08, -1.474340616283899E+07,
2460042.500000000, A.D. 2023-Apr-08 00:00:00.0000, 2.586171296889122E+08, -1.603698527974961E+08, -1.503139309612471E+07,
2460049.500000000, A.D. 2023-Apr-15 00:00:00.0000, 2.654729916754842E+08, -1.486089045858720E+08, -1.529358452308583E+07,
2460056.500000000, A.D. 2023-Apr-22 00:00:00.0000, 2.718730771379668E+08, -1.365927489823292E+08, -1.552951662508567E+07,
2460063.500000000, A.D. 2023-Apr-29 00:00:00.0000, 2.778065480022938E+08, -1.243420814554825E+08, -1.573879257003807E+07,
2460070.500000000, A.D. 2023-May-06 00:00:00.0000, 2.832637737762378E+08, -1.118781666048104E+08, -1.592108421366937E+07,
2460077.500000000, A.D. 2023-May-13 00:00:00.0000, 2.882363679480661E+08, -9.922274593744513E+07, -1.607613323244059E+07,
2460084.500000000, A.D. 2023-May-20 00:00:00.0000, 2.927172151505179E+08, -8.639794304751137E+07, -1.620375174079103E+07,
2460091.500000000, A.D. 2023-May-27 00:00:00.0000, 2.967004890892789E+08, -7.342616728784183E+07, -1.630382241183926E+07,
2460098.500000000, A.D. 2023-Jun-03 00:00:00.0000, 3.001816612457374E+08, -6.033001697638059E+07, -1.637629811149946E+07,
2460105.500000000, A.D. 2023-Jun-10 00:00:00.0000, 3.031575004748048E+08, -4.713218320512851E+07, -1.642120106365014E+07,
2460112.500000000, A.D. 2023-Jun-17 00:00:00.0000, 3.056260638215005E+08, -3.385535533120850E+07, -1.643862158090040E+07,
2460119.500000000, A.D. 2023-Jun-24 00:00:00.0000, 3.075866792341635E+08, -2.052212905840948E+07, -1.642871641360791E+07,
2460126.500000000, A.D. 2023-Jul-01 00:00:00.0000, 3.090399208972390E+08, -7.154917164897570E+06, -1.639170670537695E+07,
2460133.500000000, A.D. 2023-Jul-08 00:00:00.0000, 3.099875760933461E+08, 6.224137153005307E+06, -1.632787537115504E+07,
2460140.500000000, A.D. 2023-Jul-15 00:00:00.0000, 3.104326029919440E+08, 1.959324078808530E+07, -1.623756405361251E+07,
$$EOE